NANOSATC-BR1            
1 40024U 14033Q   26068.98267556  .00020336  00000+0  74295-3 0  9994
2 40024  98.0845  92.7804 0004644 147.6715 212.4808 15.28136801638811
TEVEL2-7                
1 63238U 25052AE  26068.66113296  .00019244  00000+0  69668-3 0  9999
2 63238  97.4054 324.3041 0008104 124.6830 235.5175 15.28414096 54802
